{"type":"FeatureCollection","features":[{"type":"Feature","properties":{"type":"frontline_contact_line","name":"Активна лінія бойового зіткнення"},"geometry":{"type":"LineString","coordinates":[[37.75,49.8],[37.9,49.3],[38,48.95],[38.1,48.7],[37.95,48.6],[37.75,48.4],[37.4,48.25],[37.5,48],[37.3,47.85],[37,47.75],[36.5,47.6],[35.8,47.45],[35.2,47.45],[34.7,47.3],[34,47.1],[33.4,46.9],[32.8,46.7],[32.3,46.6],[31.8,46.55],[31.5,46.52]]}},{"type":"Feature","properties":{"type":"kursk_frontline","name":"Курський плацдарм (Суджанський сектор)"},"geometry":{"type":"LineString","coordinates":[[35.05,51.05],[35.15,51.25],[35.4,51.35],[35.6,51.25],[35.5,51.05],[35.35,50.95],[35.05,51.05]]}}]}